[
    {
        "Altitude(m)": 703251.1402047804,
        "Argument of Periapsis(deg)": 0.0,
        "Eccentricity": 0.0,
        "Inclination(deg)": 45.0,
        "Latitude(deg)": 22.545805417423278,
        "Longitude(deg)": -15.58093103589184,
        "Mean Anomaly(deg)": 32.7273,
        "RAAN(deg)": 60.0,
        "Satellite Name": "Constellation 1 266",
        "Satellite Number": 266,
        "Semi-Major Axis(m)": 7083131.272910544,
        "Time(s)": 0
    },
    {
        "Altitude(m)": 703255.2679925207,
        "Argument of Periapsis(deg)": 5.994800624540561e-05,
        "Eccentricity": 0.0,
        "Inclination(deg)": 45.0,
        "Latitude(deg)": 22.58511667389011,
        "Longitude(deg)": -15.534811500244372,
        "Mean Anomaly(deg)": 32.7880011402499,
        "RAAN(deg)": 59.999943410834426,
        "Satellite Name": "Constellation 1 266",
        "Satellite Number": 266,
        "Semi-Major Axis(m)": 7083131.272910544,
        "Time(s)": 1
    },
    {
        "Altitude(m)": 703259.4075510082,
        "Argument of Periapsis(deg)": 0.00011989601249081122,
        "Eccentricity": 0.0,
        "Inclination(deg)": 45.0,
        "Latitude(deg)": 22.624412042452573,
        "Longitude(deg)": -15.488663459681804,
        "Mean Anomaly(deg)": 32.84870228049979,
        "RAAN(deg)": 59.99988682166885,
        "Satellite Name": "Constellation 1 266",
        "Satellite Number": 266,
        "Semi-Major Axis(m)": 7083131.272910544,
        "Time(s)": 2
    },
    {
        "Altitude(m)": 703263.5588455634,
        "Argument of Periapsis(deg)": 0.00017984401873621686,
        "Eccentricity": 0.0,
        "Inclination(deg)": 45.0,
        "Latitude(deg)": 22.663691483706316,
        "Longitude(deg)": -15.442486854418433,
        "Mean Anomaly(deg)": 32.9094034207497,
        "RAAN(deg)": 59.999830232503285,
        "Satellite Name": "Constellation 1 266",
        "Satellite Number": 266,
        "Semi-Major Axis(m)": 7083131.272910544,
        "Time(s)": 3
    },
    {
        "Altitude(m)": 703267.7218414585,
        "Argument of Periapsis(deg)": 0.00023979202498162244,
        "Eccentricity": 0.0,
        "Inclination(deg)": 45.0,
        "Latitude(deg)": 22.702954958190748,
        "Longitude(deg)": -15.39628162464862,
        "Mean Anomaly(deg)": 32.97010456099958,
        "RAAN(deg)": 59.999773643337726,
        "Satellite Name": "Constellation 1 266",
        "Satellite Number": 266,
        "Semi-Major Axis(m)": 7083131.272910544,
        "Time(s)": 4
    },
    {
        "Altitude(m)": 703271.8965039316,
        "Argument of Periapsis(deg)": 0.00029974003122702807,
        "Eccentricity": 0.0,
        "Inclination(deg)": 45.0,
        "Latitude(deg)": 22.742202426388907,
        "Longitude(deg)": -15.350047710547075,
        "Mean Anomaly(deg)": 33.030805701249506,
        "RAAN(deg)": 59.99971705417215,
        "Satellite Name": "Constellation 1 266",
        "Satellite Number": 266,
        "Semi-Major Axis(m)": 7083131.272910544,
        "Time(s)": 5
    },
    {
        "Altitude(m)": 703276.0827981785,
        "Argument of Periapsis(deg)": 0.00035968803747243373,
        "Eccentricity": 0.0,
        "Inclination(deg)": 45.0,
        "Latitude(deg)": 22.781433848727243,
        "Longitude(deg)": -15.303785052268976,
        "Mean Anomaly(deg)": 33.091506841499395,
        "RAAN(deg)": 59.99966046500658,
        "Satellite Name": "Constellation 1 266",
        "Satellite Number": 266,
        "Semi-Major Axis(m)": 7083131.272910544,
        "Time(s)": 6
    },
    {
        "Altitude(m)": 703280.2806893484,
        "Argument of Periapsis(deg)": 0.00041963604371783933,
        "Eccentricity": 0.0,
        "Inclination(deg)": 45.0,
        "Latitude(deg)": 22.820649185575395,
        "Longitude(deg)": -15.257493758047156,
        "Mean Anomaly(deg)": 33.15220798174929,
        "RAAN(deg)": 59.99960387584101,
        "Satellite Name": "Constellation 1 266",
        "Satellite Number": 266,
        "Semi-Major Axis(m)": 7083131.272910544,
        "Time(s)": 7
    },
    {
        "Altitude(m)": 703284.49014255,
        "Argument of Periapsis(deg)": 0.0004795840499632449,
        "Eccentricity": 0.0,
        "Inclination(deg)": 45.0,
        "Latitude(deg)": 22.85984839724714,
        "Longitude(deg)": -15.21117343180437,
        "Mean Anomaly(deg)": 33.21290912199919,
        "RAAN(deg)": 59.99954728667544,
        "Satellite Name": "Constellation 1 266",
        "Satellite Number": 266,
        "Semi-Major Axis(m)": 7083131.272910544,
        "Time(s)": 8
    },
    {
        "Altitude(m)": 703288.7111228604,
        "Argument of Periapsis(deg)": 0.0005395320562086505,
        "Eccentricity": 0.0,
        "Inclination(deg)": 45.0,
        "Latitude(deg)": 22.899031443998478,
        "Longitude(deg)": -15.164824181735332,
        "Mean Anomaly(deg)": 33.27361026224909,
        "RAAN(deg)": 59.99949069750986,
        "Satellite Name": "Constellation 1 266",
        "Satellite Number": 266,
        "Semi-Major Axis(m)": 7083131.272910544,
        "Time(s)": 9
    },
    {
        "Altitude(m)": 703292.943595309,
        "Argument of Periapsis(deg)": 0.0005994800624540561,
        "Eccentricity": 0.0,
        "Inclination(deg)": 45.0,
        "Latitude(deg)": 22.9381982860288,
        "Longitude(deg)": -15.118445947918993,
        "Mean Anomaly(deg)": 33.33431140249899,
        "RAAN(deg)": 59.99943410834429,
        "Satellite Name": "Constellation 1 266",
        "Satellite Number": 266,
        "Semi-Major Axis(m)": 7083131.272910544,
        "Time(s)": 10
    },
    {
        "Altitude(m)": 703297.1875248796,
        "Argument of Periapsis(deg)": 0.0006594280686994618,
        "Eccentricity": 0.0,
        "Inclination(deg)": 45.0,
        "Latitude(deg)": 22.977348883480442,
        "Longitude(deg)": -15.072038670415685,
        "Mean Anomaly(deg)": 33.39501254274889,
        "RAAN(deg)": 59.999377519178736,
        "Satellite Name": "Constellation 1 266",
        "Satellite Number": 266,
        "Semi-Major Axis(m)": 7083131.272910544,
        "Time(s)": 11
    },
    {
        "Altitude(m)": 703301.442876526,
        "Argument of Periapsis(deg)": 0.0007193760749448675,
        "Eccentricity": 0.0,
        "Inclination(deg)": 45.0,
        "Latitude(deg)": 23.016483196438543,
        "Longitude(deg)": -15.025602289267391,
        "Mean Anomaly(deg)": 33.45571368299879,
        "RAAN(deg)": 59.99932093001316,
        "Satellite Name": "Constellation 1 266",
        "Satellite Number": 266,
        "Semi-Major Axis(m)": 7083131.272910544,
        "Time(s)": 12
    },
    {
        "Altitude(m)": 703305.7096151516,
        "Argument of Periapsis(deg)": 0.000779324081190273,
        "Eccentricity": 0.0,
        "Inclination(deg)": 45.0,
        "Latitude(deg)": 23.055601184930975,
        "Longitude(deg)": -14.979136744497874,
        "Mean Anomaly(deg)": 33.516414823248674,
        "RAAN(deg)": 59.99926434084759,
        "Satellite Name": "Constellation 1 266",
        "Satellite Number": 266,
        "Semi-Major Axis(m)": 7083131.272910544,
        "Time(s)": 13
    },
    {
        "Altitude(m)": 703309.9877056376,
        "Argument of Periapsis(deg)": 0.0008392720874356787,
        "Eccentricity": 0.0,
        "Inclination(deg)": 45.0,
        "Latitude(deg)": 23.09470280892818,
        "Longitude(deg)": -14.932641976112789,
        "Mean Anomaly(deg)": 33.5771159634986,
        "RAAN(deg)": 59.999207751682015,
        "Satellite Name": "Constellation 1 266",
        "Satellite Number": 266,
        "Semi-Major Axis(m)": 7083131.272910544,
        "Time(s)": 14
    },
    {
        "Altitude(m)": 703314.2771127993,
        "Argument of Periapsis(deg)": 0.0008992200936810842,
        "Eccentricity": 0.0,
        "Inclination(deg)": 45.0,
        "Latitude(deg)": 23.133788028342867,
        "Longitude(deg)": -14.886118092196972,
        "Mean Anomaly(deg)": 33.637817103748496,
        "RAAN(deg)": 59.999151162516455,
        "Satellite Name": "Constellation 1 266",
        "Satellite Number": 266,
        "Semi-Major Axis(m)": 7083131.272910544,
        "Time(s)": 15
    },
    {
        "Altitude(m)": 703318.5778014358,
        "Argument of Periapsis(deg)": 0.0009591680999264898,
        "Eccentricity": 0.0,
        "Inclination(deg)": 45.0,
        "Latitude(deg)": 23.17285680303092,
        "Longitude(deg)": -14.839564696526725,
        "Mean Anomaly(deg)": 33.698518243998386,
        "RAAN(deg)": 59.99909457335088,
        "Satellite Name": "Constellation 1 266",
        "Satellite Number": 266,
        "Semi-Major Axis(m)": 7083131.272910544,
        "Time(s)": 16
    },
    {
        "Altitude(m)": 703322.8897362911,
        "Argument of Periapsis(deg)": 0.0010191161061718953,
        "Eccentricity": 0.0,
        "Inclination(deg)": 45.0,
        "Latitude(deg)": 23.21190909278966,
        "Longitude(deg)": -14.792981897151796,
        "Mean Anomaly(deg)": 33.75921938424829,
        "RAAN(deg)": 59.99903798418531,
        "Satellite Name": "Constellation 1 266",
        "Satellite Number": 266,
        "Semi-Major Axis(m)": 7083131.272910544,
        "Time(s)": 17
    },
    {
        "Altitude(m)": 703327.2128820792,
        "Argument of Periapsis(deg)": 0.001079064112417301,
        "Eccentricity": 0.0,
        "Inclination(deg)": 45.0,
        "Latitude(deg)": 23.250944857358853,
        "Longitude(deg)": -14.746369634007715,
        "Mean Anomaly(deg)": 33.81992052449819,
        "RAAN(deg)": 59.99898139501973,
        "Satellite Name": "Constellation 1 266",
        "Satellite Number": 266,
        "Semi-Major Axis(m)": 7083131.272910544,
        "Time(s)": 18
    }
]